[{"OBJECT_NAME":"HAWK-2A","OBJECT_ID":"2021-006CW","EPOCH":"2026-03-09T16:18:25.817472","MEAN_MOTION":15.33304498,"ECCENTRICITY":0.00064498,"INCLINATION":97.2459,"RA_OF_ASC_NODE":115.6184,"ARG_OF_PERICENTER":187.1463,"MEAN_ANOMALY":172.9689,"EPHEMERIS_TYPE":0,"CLASSIFICATION_TYPE":"U","NORAD_CAT_ID":47505,"ELEMENT_SET_NO":999,"REV_AT_EPOCH":28424,"BSTAR":0.0002543136,"MEAN_MOTION_DOT":8.113e-5,"MEAN_MOTION_DDOT":0},{"OBJECT_NAME":"STARLINK-35459","OBJECT_ID":"2025-223C","EPOCH":"2026-03-09T21:23:04.083072","MEAN_MOTION":15.30176249,"ECCENTRICITY":5.218e-5,"INCLINATION":53.1596,"RA_OF_ASC_NODE":293.4445,"ARG_OF_PERICENTER":51.8078,"MEAN_ANOMALY":308.297,"EPHEMERIS_TYPE":0,"CLASSIFICATION_TYPE":"U","NORAD_CAT_ID":65856,"ELEMENT_SET_NO":999,"REV_AT_EPOCH":2423,"BSTAR":0.00074112937,"MEAN_MOTION_DOT":0.00021639,"MEAN_MOTION_DDOT":0}]
